{"type": "FeatureCollection", "features": [{"type": "Feature", "properties": {"norad_id": 24946, "name": "IRIDIUM 33", "group": "iridium-33-debris", "lat": 66.7841002222213, "lon": 72.60529559030606, "alt_km": 769.6184612557172, "timestamp": "2025-12-22T11:33:20.824371+00:00", "meta": {"OBJECT_NAME": "IRIDIUM 33", "OBJECT_ID": "1997-051C", "EPOCH": "2025-12-22T02:52:36.107904", "MEAN_MOTION": 14.35043534, "ECCENTRICITY": 0.0008155, "INCLINATION": 86.3861, "RA_OF_ASC_NODE": 64.2842, "ARG_OF_PERICENTER": 169.3592, "MEAN_ANOMALY": 190.7778, "EPHEMERIS_TYPE": 0, "CLASSIFICATION_TYPE": "U", "NORAD_CAT_ID": 24946, "ELEMENT_SET_NO": 999, "REV_AT_EPOCH": 47969, "BSTAR": 0.00010298, "MEAN_MOTION_DOT": 3.13e-06, "MEAN_MOTION_DDOT": 0}, "tle": {"line1": "1 24946U 97051C   25356.11986236  .00000313  00000+0  10298-3 0  9993", "line2": "2 24946  86.3861  64.2842 0008155 169.3592 190.7778 14.35043534479695"}}, "geometry": {"type": "Point", "coordinates": [72.60529559030606, 66.7841002222213]}}, {"type": "Feature", "properties": {"norad_id": 33773, "name": "IRIDIUM 33 DEB", "group": "iridium-33-debris", "lat": -47.72745759162799, "lon": 52.49007877882567, "alt_km": 763.6996080532354, "timestamp": "2025-12-22T11:33:20.824416+00:00", "meta": {"OBJECT_NAME": "IRIDIUM 33 DEB", "OBJECT_ID": "1997-051L", "EPOCH": "2025-12-22T03:27:28.205280", "MEAN_MOTION": 14.43275908, "ECCENTRICITY": 0.0013157, "INCLINATION": 86.4, "RA_OF_ASC_NODE": 56.6042, "ARG_OF_PERICENTER": 119.239, "MEAN_ANOMALY": 241.0128, "EPHEMERIS_TYPE": 0, "CLASSIFICATION_TYPE": "U", "NORAD_CAT_ID": 33773, "ELEMENT_SET_NO": 999, "REV_AT_EPOCH": 88483, "BSTAR": 0.0002661, "MEAN_MOTION_DOT": 9.16e-06, "MEAN_MOTION_DDOT": 0}, "tle": {"line1": "1 33773U 97051L   25356.14407645  .00000916  00000+0  26610-3 0  9990", "line2": "2 33773  86.4000  56.6042 0013157 119.2390 241.0128 14.43275908884830"}}, "geometry": {"type": "Point", "coordinates": [52.49007877882567, -47.72745759162799]}}, {"type": "Feature", "properties": {"norad_id": 33775, "name": "IRIDIUM 33 DEB", "group": "iridium-33-debris", "lat": -26.979981330954686, "lon": 43.5385727570827, "alt_km": 768.9238869766932, "timestamp": "2025-12-22T11:33:20.824434+00:00", "meta": {"OBJECT_NAME": "IRIDIUM 33 DEB", "OBJECT_ID": "1997-051N", "EPOCH": "2025-12-21T14:37:50.869056", "MEAN_MOTION": 14.41485837, "ECCENTRICITY": 0.0015088, "INCLINATION": 86.3627, "RA_OF_ASC_NODE": 45.7665, "ARG_OF_PERICENTER": 128.1119, "MEAN_ANOMALY": 3.4564, "EPHEMERIS_TYPE": 0, "CLASSIFICATION_TYPE": "U", "NORAD_CAT_ID": 33775, "ELEMENT_SET_NO": 999, "REV_AT_EPOCH": 88268, "BSTAR": 0.00024418, "MEAN_MOTION_DOT": 8.13e-06, "MEAN_MOTION_DDOT": 0}, "tle": {"line1": "1 33775U 97051N   25355.60961654  .00000813  00000+0  24418-3 0  9997", "line2": "2 33775  86.3627  45.7665 0015088 128.1119   3.4564 14.41485837882686"}}, "geometry": {"type": "Point", "coordinates": [43.5385727570827, -26.979981330954686]}}, {"type": "Feature", "properties": {"norad_id": 33776, "name": "IRIDIUM 33 DEB", "group": "iridium-33-debris", "lat": 86.3474167627704, "lon": 156.83879193471893, "alt_km": 753.0289198304763, "timestamp": "2025-12-22T11:33:20.824448+00:00", "meta": {"OBJECT_NAME": "IRIDIUM 33 DEB", "OBJECT_ID": "1997-051P", "EPOCH": "2025-12-22T04:33:30.007296", "MEAN_MOTION": 14.38251333, "ECCENTRICITY": 0.0015379, "INCLINATION": 86.4034, "RA_OF_ASC_NODE": 76.8074, "ARG_OF_PERICENTER": 160.3153, "MEAN_ANOMALY": 220.5711, "EPHEMERIS_TYPE": 0, "CLASSIFICATION_TYPE": "U", "NORAD_CAT_ID": 33776, "ELEMENT_SET_NO": 999, "REV_AT_EPOCH": 88218, "BSTAR": 0.00026404, "MEAN_MOTION_DOT": 8.23e-06, "MEAN_MOTION_DDOT": 0}, "tle": {"line1": "1 33776U 97051P   25356.18993064  .00000823  00000+0  26404-3 0  9990", "line2": "2 33776  86.4034  76.8074 0015379 160.3153 220.5711 14.38251333882187"}}, "geometry": {"type": "Point", "coordinates": [156.83879193471893, 86.3474167627704]}}, {"type": "Feature", "properties": {"norad_id": 33777, "name": "IRIDIUM 33 DEB", "group": "iridium-33-debris", "lat": 53.139231105361986, "lon": -153.88191676979122, "alt_km": 701.5864257837684, "timestamp": "2025-12-22T11:33:20.824460+00:00", "meta": {"OBJECT_NAME": "IRIDIUM 33 DEB", "OBJECT_ID": "1997-051Q", "EPOCH": "2025-12-22T04:22:35.014080", "MEAN_MOTION": 14.55675322, "ECCENTRICITY": 0.0005971, "INCLINATION": 86.3773, "RA_OF_ASC_NODE": 31.0955, "ARG_OF_PERICENTER": 208.3162, "MEAN_ANOMALY": 151.7722, "EPHEMERIS_TYPE": 0, "CLASSIFICATION_TYPE": "U", "NORAD_CAT_ID": 33777, "ELEMENT_SET_NO": 999, "REV_AT_EPOCH": 88671, "BSTAR": 0.00077164, "MEAN_MOTION_DOT": 3.391e-05, "MEAN_MOTION_DDOT": 0}, "tle": {"line1": "1 33777U 97051Q   25356.18234970  .00003391  00000+0  77164-3 0  9997", "line2": "2 33777  86.3773  31.0955 0005971 208.3162 151.7722 14.55675322886715"}}, "geometry": {"type": "Point", "coordinates": [-153.88191676979122, 53.139231105361986]}}, {"type": "Feature", "properties": {"norad_id": 33850, "name": "IRIDIUM 33 DEB", "group": "iridium-33-debris", "lat": -22.310497994292223, "lon": 24.48573409362791, "alt_km": 765.1434994785513, "timestamp": "2025-12-22T11:33:20.824473+00:00", "meta": {"OBJECT_NAME": "IRIDIUM 33 DEB", "OBJECT_ID": "1997-051T", "EPOCH": "2025-12-21T12:54:25.325568", "MEAN_MOTION": 14.4216572, "ECCENTRICITY": 0.00130293, "INCLINATION": 86.3408, "RA_OF_ASC_NODE": 26.3962, "ARG_OF_PERICENTER": 134.7554, "MEAN_ANOMALY": 346.6938, "EPHEMERIS_TYPE": 0, "CLASSIFICATION_TYPE": "U", "NORAD_CAT_ID": 33850, "ELEMENT_SET_NO": 999, "REV_AT_EPOCH": 88279, "BSTAR": 0.00030357281, "MEAN_MOTION_DOT": 1.019e-05, "MEAN_MOTION_DDOT": 0}, "tle": {"line1": "1 33850U 97051T   25355.53779312  .00001019  00000+0  30357-3 0  9999", "line2": "2 33850  86.3408  26.3962 0013029 134.7554 346.6938 14.42165720882797"}}, "geometry": {"type": "Point", "coordinates": [24.48573409362791, -22.310497994292223]}}, {"type": "Feature", "properties": {"norad_id": 33853, "name": "IRIDIUM 33 DEB", "group": "iridium-33-debris", "lat": -64.6574981358635, "lon": -22.956741886919975, "alt_km": 899.2513085572336, "timestamp": "2025-12-22T11:33:20.824488+00:00", "meta": {"OBJECT_NAME": "IRIDIUM 33 DEB", "OBJECT_ID": "1997-051W", "EPOCH": "2025-12-20T22:14:35.888928", "MEAN_MOTION": 13.9910315, "ECCENTRICITY": 0.0207332, "INCLINATION": 85.9999, "RA_OF_ASC_NODE": 346.2208, "ARG_OF_PERICENTER": 210.5493, "MEAN_ANOMALY": 176.3282, "EPHEMERIS_TYPE": 0, "CLASSIFICATION_TYPE": "U", "NORAD_CAT_ID": 33853, "ELEMENT_SET_NO": 999, "REV_AT_EPOCH": 85460, "BSTAR": 0.0010168, "MEAN_MOTION_DOT": 1.786e-05, "MEAN_MOTION_DDOT": 0}, "tle": {"line1": "1 33853U 97051W   25354.92680427  .00001786  00000+0  10168-2 0  9990", "line2": "2 33853  85.9999 346.2208 0207332 210.5493 176.3282 13.99103150854603"}}, "geometry": {"type": "Point", "coordinates": [-22.956741886919975, -64.6574981358635]}}, {"type": "Feature", "properties": {"norad_id": 33860, "name": "IRIDIUM 33 DEB", "group": "iridium-33-debris", "lat": 76.10531810880488, "lon": 37.74438423064739, "alt_km": 663.9765511592295, "timestamp": "2025-12-22T11:33:20.824500+00:00", "meta": {"OBJECT_NAME": "IRIDIUM 33 DEB", "OBJECT_ID": "1997-051AD", "EPOCH": "2025-12-22T01:29:22.706304", "MEAN_MOTION": 14.67472484, "ECCENTRICITY": 0.0006313, "INCLINATION": 86.3821, "RA_OF_ASC_NODE": 23.1111, "ARG_OF_PERICENTER": 322.0351, "MEAN_ANOMALY": 60.1727, "EPHEMERIS_TYPE": 0, "CLASSIFICATION_TYPE": "U", "NORAD_CAT_ID": 33860, "ELEMENT_SET_NO": 999, "REV_AT_EPOCH": 88859, "BSTAR": 0.0011042, "MEAN_MOTION_DOT": 6.276e-05, "MEAN_MOTION_DDOT": 0}, "tle": {"line1": "1 33860U 97051AD  25356.06206836  .00006276  00000+0  11042-2 0  9994", "line2": "2 33860  86.3821  23.1111 0006313 322.0351  60.1727 14.67472484888596"}}, "geometry": {"type": "Point", "coordinates": [37.74438423064739, 76.10531810880488]}}, {"type": "Feature", "properties": {"norad_id": 33862, "name": "IRIDIUM 33 DEB", "group": "iridium-33-debris", "lat": -6.645579261665819, "lon": -146.3466336663491, "alt_km": 698.2685153023185, "timestamp": "2025-12-22T11:33:20.824511+00:00", "meta": {"OBJECT_NAME": "IRIDIUM 33 DEB", "OBJECT_ID": "1997-051AF", "EPOCH": "2025-12-21T13:59:31.257024", "MEAN_MOTION": 14.69601315, "ECCENTRICITY": 0.0052554, "INCLINATION": 86.4078, "RA_OF_ASC_NODE": 33.6303, "ARG_OF_PERICENTER": 39.5195, "MEAN_ANOMALY": 76.2806, "EPHEMERIS_TYPE": 0, "CLASSIFICATION_TYPE": "U", "NORAD_CAT_ID": 33862, "ELEMENT_SET_NO": 999, "REV_AT_EPOCH": 88953, "BSTAR": 0.0010364, "MEAN_MOTION_DOT": 6.314e-05, "MEAN_MOTION_DDOT": 0}, "tle": {"line1": "1 33862U 97051AF  25355.58300066  .00006314  00000+0  10364-2 0  9991", "line2": "2 33862  86.4078  33.6303 0052554  39.5195  76.2806 14.69601315889536"}}, "geometry": {"type": "Point", "coordinates": [-146.3466336663491, -6.645579261665819]}}, {"type": "Feature", "properties": {"norad_id": 33866, "name": "IRIDIUM 33 DEB", "group": "iridium-33-debris", "lat": 37.994806052989404, "lon": -93.98282996165588, "alt_km": 723.6738772156141, "timestamp": "2025-12-22T11:33:20.824522+00:00", "meta": {"OBJECT_NAME": "IRIDIUM 33 DEB", "OBJECT_ID": "1997-051AK", "EPOCH": "2025-12-21T06:30:23.838336", "MEAN_MOTION": 14.25298734, "ECCENTRICITY": 0.0115015, "INCLINATION": 86.3001, "RA_OF_ASC_NODE": 89.4265, "ARG_OF_PERICENTER": 134.3497, "MEAN_ANOMALY": 280.5396, "EPHEMERIS_TYPE": 0, "CLASSIFICATION_TYPE": "U", "NORAD_CAT_ID": 33866, "ELEMENT_SET_NO": 999, "REV_AT_EPOCH": 86932, "BSTAR": 0.00042898, "MEAN_MOTION_DOT": 1.102e-05, "MEAN_MOTION_DDOT": 0}, "tle": {"line1": "1 33866U 97051AK  25355.27110924  .00001102  00000+0  42898-3 0  9991", "line2": "2 33866  86.3001  89.4265 0115015 134.3497 280.5396 14.25298734869320"}}, "geometry": {"type": "Point", "coordinates": [-93.98282996165588, 37.994806052989404]}}]}